{"type": "FeatureCollection", "features": [ {"type": "Feature", "properties": {"norad_id": 33939, "name": "COSMOS 2251 DEB", "group": "cosmos-2251-debris", "lat": -22.31566371213666, "lon": -76.34368588358562, "alt_km": 575.411637579582, "timestamp": "2025-12-04T17:48:40.557969+00:00", "meta": {"OBJECT_NAME": "COSMOS 2251 DEB", "OBJECT_ID": "1993-036EU", "EPOCH": "2025-12-04T07:17:48.611040", "MEAN_MOTION": 14.98829996, "ECCENTRICITY": 0.00030165, "INCLINATION": 74.0072, "RA_OF_ASC_NODE": 97.7858, "ARG_OF_PERICENTER": 110.9643, "MEAN_ANOMALY": 249.1866, "EPHEMERIS_TYPE": 0, "CLASSIFICATION_TYPE": "U", "NORAD_CAT_ID": 33939, "ELEMENT_SET_NO": 999, "REV_AT_EPOCH": 88626, "BSTAR": 0.0085500435, "MEAN_MOTION_DOT": 0.00104711, "MEAN_MOTION_DDOT": 0}, "tle": {"line1": "1 33939U 93036EU  25338.30403485  .00104711  00000+0  85500-2 0  9999", "line2": "2 33939  74.0072  97.7858 0003016 110.9643 249.1866 14.98829996886268"}}, "geometry": {"type": "Point", "coordinates": [-76.34368588358562, -22.31566371213666]}}, {"type": "Feature", "properties": {"norad_id": 33940, "name": "COSMOS 2251 DEB", "group": "cosmos-2251-debris", "lat": 59.34220551084986, "lon": -172.40555122709048, "alt_km": 699.58864461542, "timestamp": "2025-12-04T17:48:40.557980+00:00", "meta": {"OBJECT_NAME": "COSMOS 2251 DEB", "OBJECT_ID": "1993-036EV", "EPOCH": "2025-12-04T06:48:29.394720", "MEAN_MOTION": 14.58663589, "ECCENTRICITY": 0.00116844, "INCLINATION": 74.0382, "RA_OF_ASC_NODE": 159.5954, "ARG_OF_PERICENTER": 238.6516, "MEAN_ANOMALY": 298.3953, "EPHEMERIS_TYPE": 0, "CLASSIFICATION_TYPE": "U", "NORAD_CAT_ID": 33940, "ELEMENT_SET_NO": 999, "REV_AT_EPOCH": 88470, "BSTAR": 0.0023267778, "MEAN_MOTION_DOT": 0.00010844, "MEAN_MOTION_DDOT": 0}, "tle": {"line1": "1 33940U 93036EV  25338.28367355  .00010844  00000+0  23268-2 0  9999", "line2": "2 33940  74.0382 159.5954 0011684 238.6516 298.3953 14.58663589884705"}}, "geometry": {"type": "Point", "coordinates": [-172.40555122709048, 59.34220551084986]}}, {"type": "Feature", "properties": {"norad_id": 33942, "name": "COSMOS 2251 DEB", "group": "cosmos-2251-debris", "lat": 40.030741468113405, "lon": 95.64440750303093, "alt_km": 769.5380689090107, "timestamp": "2025-12-04T17:48:40.557990+00:00", "meta": {"OBJECT_NAME": "COSMOS 2251 DEB", "OBJECT_ID": "1993-036EX", "EPOCH": "2025-12-04T07:54:11.272896", "MEAN_MOTION": 14.37969185, "ECCENTRICITY": 0.00199225, "INCLINATION": 74.0361, "RA_OF_ASC_NODE": 290.3177, "ARG_OF_PERICENTER": 15.4762, "MEAN_ANOMALY": 145.9818, "EPHEMERIS_TYPE": 0, "CLASSIFICATION_TYPE": "U", "NORAD_CAT_ID": 33942, "ELEMENT_SET_NO": 999, "REV_AT_EPOCH": 88013, "BSTAR": 0.00048552038, "MEAN_MOTION_DOT": 1.445e-05, "MEAN_MOTION_DDOT": 0}, "tle": {"line1": "1 33942U 93036EX  25338.32929714  .00001445  00000+0  48552-3 0  9990", "line2": "2 33942  74.0361 290.3177 0019922  15.4762 145.9818 14.37969185880130"}}, "geometry": {"type": "Point", "coordinates": [95.64440750303093, 40.030741468113405]}}, {"type": "Feature", "properties": {"norad_id": 33944, "name": "COSMOS 2251 DEB", "group": "cosmos-2251-debris", "lat": 28.801964145337095, "lon": -27.306771656339375, "alt_km": 700.0034824809372, "timestamp": "2025-12-04T17:48:40.558000+00:00", "meta": {"OBJECT_NAME": "COSMOS 2251 DEB", "OBJECT_ID": "1993-036EZ", "EPOCH": "2025-12-04T08:12:00.573120", "MEAN_MOTION": 14.37316078, "ECCENTRICITY": 0.01119364, "INCLINATION": 74.04, "RA_OF_ASC_NODE": 324.3772, "ARG_OF_PERICENTER": 66.2005, "MEAN_ANOMALY": 53.4074, "EPHEMERIS_TYPE": 0, "CLASSIFICATION_TYPE": "U", "NORAD_CAT_ID": 33944, "ELEMENT_SET_NO": 999, "REV_AT_EPOCH": 87907, "BSTAR": 0.00054052643, "MEAN_MOTION_DOT": 1.707e-05, "MEAN_MOTION_DDOT": 0}, "tle": {"line1": "1 33944U 93036EZ  25338.34167330  .00001707  00000+0  54053-3 0  9996", "line2": "2 33944  74.0400 324.3772 0111936  66.2005  53.4074 14.37316078879072"}}, "geometry": {"type": "Point", "coordinates": [-27.306771656339375, 28.801964145337095]}}, {"type": "Feature", "properties": {"norad_id": 33945, "name": "COSMOS 2251 DEB", "group": "cosmos-2251-debris", "lat": -72.27819147149636, "lon": -155.41948309592607, "alt_km": 796.4064154873295, "timestamp": "2025-12-04T17:48:40.558010+00:00", "meta": {"OBJECT_NAME": "COSMOS 2251 DEB", "OBJECT_ID": "1993-036FA", "EPOCH": "2025-12-04T06:33:04.624416", "MEAN_MOTION": 14.34590173, "ECCENTRICITY": 0.00215934, "INCLINATION": 74.0293, "RA_OF_ASC_NODE": 321.7821, "ARG_OF_PERICENTER": 50.7499, "MEAN_ANOMALY": 309.5565, "EPHEMERIS_TYPE": 0, "CLASSIFICATION_TYPE": "U", "NORAD_CAT_ID": 33945, "ELEMENT_SET_NO": 999, "REV_AT_EPOCH": 87894, "BSTAR": 0.00026021363, "MEAN_MOTION_DOT": 7.11e-06, "MEAN_MOTION_DDOT": 0}, "tle": {"line1": "1 33945U 93036FA  25338.27297019  .00000711  00000+0  26021-3 0  9995", "line2": "2 33945  74.0293 321.7821 0021593  50.7499 309.5565 14.34590173878945"}}, "geometry": {"type": "Point", "coordinates": [-155.41948309592607, -72.27819147149636]}}, {"type": "Feature", "properties": {"norad_id": 33948, "name": "COSMOS 2251 DEB", "group": "cosmos-2251-debris", "lat": 72.16324829335163, "lon": 22.63856810288336, "alt_km": 754.1966565281718, "timestamp": "2025-12-04T17:48:40.558020+00:00", "meta": {"OBJECT_NAME": "COSMOS 2251 DEB", "OBJECT_ID": "1993-036FD", "EPOCH": "2025-12-04T00:42:29.692512", "MEAN_MOTION": 14.35613003, "ECCENTRICITY": 0.00223705, "INCLINATION": 74.0352, "RA_OF_ASC_NODE": 321.116, "ARG_OF_PERICENTER": 39.4809, "MEAN_ANOMALY": 320.7968, "EPHEMERIS_TYPE": 0, "CLASSIFICATION_TYPE": "U", "NORAD_CAT_ID": 33948, "ELEMENT_SET_NO": 999, "REV_AT_EPOCH": 87898, "BSTAR": 0.00035496193, "MEAN_MOTION_DOT": 1e-05, "MEAN_MOTION_DDOT": 0}, "tle": {"line1": "1 33948U 93036FD  25338.02951033  .00001000  00000+0  35496-3 0  9992", "line2": "2 33948  74.0352 321.1160 0022370  39.4809 320.7968 14.35613003878982"}}, "geometry": {"type": "Point", "coordinates": [22.63856810288336, 72.16324829335163]}}, {"type": "Feature", "properties": {"norad_id": 33971, "name": "COSMOS 2251 DEB", "group": "cosmos-2251-debris", "lat": 30.526936106417118, "lon": -81.76168827099694, "alt_km": 745.4610008677892, "timestamp": "2025-12-04T17:48:40.558031+00:00", "meta": {"OBJECT_NAME": "COSMOS 2251 DEB", "OBJECT_ID": "1993-036FE", "EPOCH": "2025-12-04T06:44:18.474432", "MEAN_MOTION": 14.39700771, "ECCENTRICITY": 0.00181238, "INCLINATION": 74.0249, "RA_OF_ASC_NODE": 269.3656, "ARG_OF_PERICENTER": 11.4576, "MEAN_ANOMALY": 150.1896, "EPHEMERIS_TYPE": 0, "CLASSIFICATION_TYPE": "U", "NORAD_CAT_ID": 33971, "ELEMENT_SET_NO": 999, "REV_AT_EPOCH": 88017, "BSTAR": 0.00061841504, "MEAN_MOTION_DOT": 1.914e-05, "MEAN_MOTION_DDOT": 0}, "tle": {"line1": "1 33971U 93036FE  25338.28076938  .00001914  00000+0  61842-3 0  9996", "line2": "2 33971  74.0249 269.3656 0018123  11.4576 150.1896 14.39700771880170"}}, "geometry": {"type": "Point", "coordinates": [-81.76168827099694, 30.526936106417118]}}, {"type": "Feature", "properties": {"norad_id": 33972, "name": "COSMOS 2251 DEB", "group": "cosmos-2251-debris", "lat": 66.5474237208807, "lon": -113.18471749114623, "alt_km": 716.7496621068312, "timestamp": "2025-12-04T17:48:40.558041+00:00", "meta": {"OBJECT_NAME": "COSMOS 2251 DEB", "OBJECT_ID": "1993-036FF", "EPOCH": "2025-12-04T08:00:29.077632", "MEAN_MOTION": 14.36132323, "ECCENTRICITY": 0.01229757, "INCLINATION": 73.9946, "RA_OF_ASC_NODE": 206.143, "ARG_OF_PERICENTER": 15.7677, "MEAN_ANOMALY": 104.7553, "EPHEMERIS_TYPE": 0, "CLASSIFICATION_TYPE": "U", "NORAD_CAT_ID": 33972, "ELEMENT_SET_NO": 999, "REV_AT_EPOCH": 86953, "BSTAR": 0.0024762899, "MEAN_MOTION_DOT": 7.846e-05, "MEAN_MOTION_DDOT": 0}, "tle": {"line1": "1 33972U 93036FF  25338.33366988  .00007846  00000+0  24763-2 0  9990", "line2": "2 33972  73.9946 206.1430 0122975  15.7677 104.7553 14.36132323869533"}}, "geometry": {"type": "Point", "coordinates": [-113.18471749114623, 66.5474237208807]}}, {"type": "Feature", "properties": {"norad_id": 33973, "name": "COSMOS 2251 DEB", "group": "cosmos-2251-debris", "lat": -72.44862965295316, "lon": 52.76290988502896, "alt_km": 716.2533199302407, "timestamp": "2025-12-04T17:48:40.558052+00:00", "meta": {"OBJECT_NAME": "COSMOS 2251 DEB", "OBJECT_ID": "1993-036FG", "EPOCH": "2025-12-04T02:08:50.177760", "MEAN_MOTION": 14.45375882, "ECCENTRICITY": 0.00471452, "INCLINATION": 74.0072, "RA_OF_ASC_NODE": 119.0433, "ARG_OF_PERICENTER": 299.0851, "MEAN_ANOMALY": 183.7428, "EPHEMERIS_TYPE": 0, "CLASSIFICATION_TYPE": "U", "NORAD_CAT_ID": 33973, "ELEMENT_SET_NO": 999, "REV_AT_EPOCH": 88475, "BSTAR": 0.00027647323, "MEAN_MOTION_DOT": 9.57e-06, "MEAN_MOTION_DDOT": 0}, "tle": {"line1": "1 33973U 93036FG  25338.08946965  .00000957  00000+0  27647-3 0  9993", "line2": "2 33973  74.0072 119.0433 0047145 299.0851 183.7428 14.45375882884755"}}, "geometry": {"type": "Point", "coordinates": [52.76290988502896, -72.44862965295316]}}, {"type": "Feature", "properties": {"norad_id": 33975, "name": "COSMOS 2251 DEB", "group": "cosmos-2251-debris", "lat": 63.368742256693004, "lon": 133.94038314386862, "alt_km": 1019.1396662125608, "timestamp": "2025-12-04T17:48:40.558062+00:00", "meta": {"OBJECT_NAME": "COSMOS 2251 DEB", "OBJECT_ID": "1993-036FJ", "EPOCH": "2025-12-04T02:02:40.644096", "MEAN_MOTION": 14.00493924, "ECCENTRICITY": 0.01914614, "INCLINATION": 73.8012, "RA_OF_ASC_NODE": 99.6655, "ARG_OF_PERICENTER": 233.8788, "MEAN_ANOMALY": 124.4492, "EPHEMERIS_TYPE": 0, "CLASSIFICATION_TYPE": "U", "NORAD_CAT_ID": 33975, "ELEMENT_SET_NO": 999, "REV_AT_EPOCH": 85708, "BSTAR": 0.0012531514, "MEAN_MOTION_DOT": 2.154e-05, "MEAN_MOTION_DDOT": 0}, "tle": {"line1": "1 33975U 93036FJ  25338.08519264  .00002154  00000+0  12532-2 0  9990", "line2": "2 33975  73.8012  99.6655 0191461 233.8788 124.4492 14.00493924857081"}}, "geometry": {"type": "Point", "coordinates": [133.94038314386862, 63.368742256693004]}}]}